ONEWEB-0258             
1 48976U 21060K   25006.36941306  .00000164  00000+0  39513-3 0  9992
2 48976  87.9104 333.7626 0001824  84.9352 275.1987 13.16596988170273
ONEWEB-0259             
1 48977U 21060L   25006.36309537  .00000209  00000+0  51400-3 0  9996
2 48977  87.9103 333.7483 0001801  90.7337 269.4001 13.16596234170308
ONEWEB-0260             
1 48978U 21060M   25006.35439781  .00000186  00000+0  45375-3 0  9999
2 48978  87.9103 333.7796 0001588  64.7004 295.4291 13.16595123170283
ONEWEB-0261             
1 48979U 21060N   25006.40029398  .00000032  00000+0  51045-4 0  9997
2 48979  87.9108 333.7691 0001286  84.3777 275.7500 13.16592929170345
ONEWEB-0262             
1 48980U 21060P   25006.38050446  .00000095  00000+0  21556-3 0  9996
2 48980  87.9106 333.7314 0001842  93.3148 266.8193 13.16596407170307
ONEWEB-0263             
1 48981U 21060Q   25006.41215628 -.00000224  00000+0 -61840-3 0  9992
2 48981  87.9106 333.7478 0001453  93.1318 266.9979 13.16593035170277
ONEWEB-0264             
1 48982U 21060R   25006.44937041  .00000115  00000+0  26597-3 0  9993
2 48982  87.9107 333.7501 0001694  83.2024 276.9300 13.16596882170280
ONEWEB-0266             
1 48984U 21060T   25006.39476380 -.00000152  00000+0 -43060-3 0  9990
2 48984  87.9107 333.7332 0001975  86.4918 273.6439 13.16594978170262
